H1 CPF 01  gfz 2021 01 01 01  5011 terrasarx 
H2 0702601  6201 31698    2021 01 01 00 59 42 2021 01 06 00 00 42   120 1 1  0 0 0
H9
10 0 59216  33102.000000  0     -51725.391  -1258111.880  -6779030.616
10 0 59216  33222.000000  0    -675119.901   -586503.710  -6836761.474
10 0 59216  33342.000000  0   -1274886.626    105962.860  -6775269.540
10 0 59216  33462.000000  0   -1840382.619    806791.324  -6595612.941
10 0 59216  33582.000000  0   -2361770.123   1503154.727  -6300882.358
10 0 59216  33702.000000  0   -2830184.267   2182124.592  -5896153.696
10 0 59216  33822.000000  0   -3237883.273   2830906.348  -5388410.679
10 0 59216  33942.000000  0   -3578378.633   3437078.963  -4786436.308
10 0 59216  34062.000000  0   -3846543.272   3988833.754  -4100671.877
10 0 59216  34182.000000  0   -4038693.213   4475207.303  -3343044.749
10 0 59216  34302.000000  0   -4152640.839   4886303.678  -2526768.737
10 0 59216  34422.000000  0   -4187720.768   5213501.376  -1666118.845
10 0 59216  34542.000000  0   -4144786.270   5449640.262   -776183.170
10 0 59216  34662.000000  0   -4026174.416   5589183.533    127405.622
10 0 59216  34782.000000  0   -3835640.276   5628346.971   1028751.199
10 0 59216  34902.000000  0   -3578262.604   5565195.583   1911981.846
10 0 59216  35022.000000  0   -3260321.958   5399702.271   2761540.862
10 0 59216  35142.000000  0   -2889153.155   5133765.746   3562469.185
10 0 59216  35262.000000  0   -2472979.039   4771190.269   4300673.786
10 0 59216  35382.000000  0   -2020729.003   4317627.868   4963178.901
10 0 59216  35502.000000  0   -1541847.156   3780483.841   5538354.799
10 0 59216  35622.000000  0   -1046093.684   3168787.980   6016119.709
10 0 59216  35742.000000  0    -543345.213   2493035.105   6388111.225
10 0 59216  35862.000000  0     -43398.639   1764999.359   6647825.817
10 0 59216  35982.000000  0     444218.897    997526.025   6790727.249
10 0 59216  36102.000000  0     910430.945    204302.793   6814320.299
10 0 59216  36222.000000  0    1346779.495   -600383.330   6718191.413
10 0 59216  36342.000000  0    1745577.766  -1401902.816   6504016.500
10 0 59216  36462.000000  0    2100045.734  -2185548.735   6175533.654
10 0 59216  36582.000000  0    2404426.422  -2936807.066   5738482.968
10 0 59216  36702.000000  0    2654081.256  -3641627.627   5200511.630
10 0 59216  36822.000000  0    2845561.824  -4286690.085   4571045.601
10 0 59216  36942.000000  0    2976658.136  -4859661.272   3861130.287
10 0 59216  37062.000000  0    3046421.667  -5349437.990   3083239.323
10 0 59216  37182.000000  0    3055162.212  -5746369.982   2251056.309
10 0 59216  37302.000000  0    3004417.781  -6042457.345   1379231.121
10 0 59216  37422.000000  0    2896898.672  -6231516.354    483117.439
10 0 59216  37542.000000  0    2736408.564  -6309311.660   -421503.654
10 0 59216  37662.000000  0    2527741.924  -6273651.005  -1318711.236
10 0 59216  37782.000000  0    2276560.542  -6124435.973  -2192734.295
10 0 59216  37902.000000  0    1989254.049  -5863672.279  -3028235.866
10 0 59216  38022.000000  0    1672785.338  -5495436.980  -3810588.809
10 0 59216  38142.000000  0    1334527.956  -5025802.816  -4526132.139
10 0 59216  38262.000000  0     982100.664  -4462726.023  -5162406.297
10 0 59216  38382.000000  0     623200.940  -3815900.665  -5708363.491
10 0 59216  38502.000000  0     265441.540  -3096582.182  -6154550.531
10 0 59216  38622.000000  0     -83806.313  -2317384.701  -6493261.260
10 0 59216  38742.000000  0    -417560.119  -1492056.702  -6718658.217
10 0 59216  38862.000000  0    -729360.979   -635239.103  -6826863.414
10 0 59216  38982.000000  0   -1013394.151    237791.357  -6816017.938
10 0 59216  39102.000000  0   -1264594.457   1111388.330  -6686309.161
10 0 59216  39222.000000  0   -1478734.495   1969809.035  -6439967.751
10 0 59216  39342.000000  0   -1652494.276   2797490.653  -6081233.535
10 0 59216  39462.000000  0   -1783512.636   3579328.085  -5616291.827
10 0 59216  39582.000000  0   -1870418.527   4300948.037  -5053176.912
10 0 59216  39702.000000  0   -1912842.276   4948975.568  -4401645.122
10 0 59216  39822.000000  0   -1911406.198   5511287.970  -3673015.660
10 0 59216  39942.000000  0   -1867693.696   5977249.189  -2879981.958
10 0 59216  40062.000000  0   -1784197.521   6337920.824  -2036397.045
10 0 59216  40182.000000  0   -1664248.848   6586245.406  -1157033.857
10 0 59216  40302.000000  0   -1511927.556   6717194.530   -257325.301
10 0 59216  40422.000000  0   -1331956.097   6727880.468    646910.174
10 0 59216  40542.000000  0   -1129578.943   6617626.672   1539755.988
10 0 59216  40662.000000  0    -910431.012   6387989.556   2405489.004
10 0 59216  40782.000000  0    -680398.109   6042734.537   3228864.237
10 0 59216  40902.000000  0    -445473.850   5587769.667   3995389.035
10 0 59216  41022.000000  0    -211617.021   5031038.717   4691583.082
10 0 59216  41142.000000  0      15388.826   4382370.682   5305220.037
10 0 59216  41262.000000  0     230069.730   3653295.083   5825537.250
10 0 59216  41382.000000  0     427384.755   2856830.086   6243421.762
10 0 59216  41502.000000  0     602837.314   2007241.837   6551564.330
10 0 59216  41622.000000  0     752572.215   1119784.382   6744581.146
10 0 59216  41742.000000  0     873456.491    210422.877   6819101.918
10 0 59216  41862.000000  0     963142.799   -704452.725   6773824.649
10 0 59216  41982.000000  0    1020114.296  -1608322.466   6609538.277
10 0 59216  42102.000000  0    1043710.373  -2484834.330   6329110.079
10 0 59216  42222.000000  0    1034132.834  -3318100.989   5937439.354
10 0 59216  42342.000000  0     992431.564  -4092990.125   5441375.264
10 0 59216  42462.000000  0     920471.940  -4795401.257   4849602.145
10 0 59216  42582.000000  0     820883.836  -5412527.624   4172494.650
10 0 59216  42702.000000  0     696992.573  -5933099.407   3421941.167
10 0 59216  42822.000000  0     552733.085  -6347600.079   2611136.656
10 0 59216  42942.000000  0     392548.857  -6648450.172   1754349.550
10 0 59216  43062.000000  0     221278.376  -6830154.456    866667.673
10 0 59216  43182.000000  0      44031.785  -6889411.015    -36273.716
10 0 59216  43302.000000  0    -133939.901  -6825174.490   -938577.863
10 0 59216  43422.000000  0    -307377.919  -6638671.702  -1824376.058
10 0 59216  43542.000000  0    -471148.357  -6333372.201  -2678113.832
10 0 59216  43662.000000  0    -620371.178  -5914915.619  -3484829.634
10 0 59216  43782.000000  0    -750542.677  -5390996.389  -4230420.454
10 0 59216  43902.000000  0    -857647.920  -4771208.728  -4901887.532
10 0 59216  44022.000000  0    -938260.679  -4066858.641  -5487557.453
10 0 59216  44142.000000  0    -989628.812  -3290747.514  -5977276.969
10 0 59216  44262.000000  0   -1009743.302  -2456932.046  -6362578.899
10 0 59216  44382.000000  0    -997390.119  -1580465.413  -6636817.154
10 0 59216  44502.000000  0    -952184.280   -677125.735  -6795270.175
10 0 59216  44622.000000  0    -874585.798    236864.538  -6835213.804
10 0 59216  44742.000000  0    -765896.338   1145123.886  -6755961.904
10 0 59216  44862.000000  0    -628237.721   2031397.524  -6558876.676
10 0 59216  44982.000000  0    -464512.774   2879840.816  -6247348.052
10 0 59216  45102.000000  0    -278347.981   3675297.822  -5826743.162
10 0 59216  45222.000000  0     -74018.599   4403570.833  -5304323.175
10 0 59216  45342.000000  0     143641.927   5051674.933  -4689129.049
10 0 59216  45462.000000  0     369346.841   5608075.810  -3991836.558
10 0 59216  45582.000000  0     597473.960   6062904.368  -3224580.296
10 0 59216  45702.000000  0     822194.039   6408142.978  -2400749.586
10 0 59216  45822.000000  0    1037607.088   6637779.784  -1534758.637
10 0 59216  45942.000000  0    1237883.397   6747925.905   -641793.820
10 0 59216  46062.000000  0    1417406.049   6736891.601    262456.967
10 0 59216  46182.000000  0    1570910.809   6605217.799   1162087.045
10 0 59216  46302.000000  0    1693618.969   6355663.127   2041258.379
10 0 59216  46422.000000  0    1781361.112   5993147.492   2884488.434
10 0 59216  46542.000000  0    1830688.217   5524652.737   3676930.479
10 0 59216  46662.000000  0    1838966.796   4959082.086   4404642.153
10 0 59216  46782.000000  0    1804456.135   4307081.600   5054834.915
10 0 59216  46902.000000  0    1726365.180   3580827.775   5616099.222
10 0 59216  47022.000000  0    1604888.331   2793791.868   6078599.323
10 0 59216  47142.000000  0    1441220.566   1960483.969   6434241.489
10 0 59216  47262.000000  0    1237550.597   1096179.876   6676810.229
10 0 59216  47382.000000  0     997032.708    216637.753   6802069.837
10 0 59216  47502.000000  0     723738.037   -662188.107   6807833.270
10 0 59216  47622.000000  0     422585.520  -1524436.174   6693999.687
10 0 59216  47742.000000  0      99253.225  -2354623.979   6462556.137
10 0 59216  47862.000000  0    -239928.529  -3137926.705   6117545.048
10 0 59216  47982.000000  0    -588099.266  -3860443.215   5664995.598
10 0 59216  48102.000000  0    -938003.665  -4509443.424   5112823.551
10 0 59216  48222.000000  0   -1282139.479  -5073597.627   4470701.868
10 0 59216  48342.000000  0   -1612916.286  -5543184.205   3749897.729
10 0 59216  48462.000000  0   -1922819.828  -5910267.299   2963076.778
10 0 59216  48582.000000  0   -2204579.075  -6168839.510   2124080.455
10 0 59216  48702.000000  0   -2451332.034  -6314927.681   1247679.819
10 0 59216  48822.000000  0   -2656784.960  -6346658.774    349309.687
10 0 59216  48942.000000  0   -2815361.714  -6264283.771   -555210.937
10 0 59216  49062.000000  0   -2922339.357  -6070158.642  -1449966.221
10 0 59216  49182.000000  0   -2973966.790  -5768682.654  -2319232.229
10 0 59216  49302.000000  0   -2967563.423  -5366195.960  -3147760.618
10 0 59216  49422.000000  0   -2901594.888  -4870838.862  -3921051.126
10 0 59216  49542.000000  0   -2775724.045  -4292377.331  -4625605.749
99
